ORBCOMM FM115 [+]       
1 41186U 15081H   23263.87022626  .00001265  00000+0  29716-3 0  9995
2 41186  46.9991 174.5607 0000866 346.0041  14.0821 14.59905176414864
ORBCOMM FM108 [+]       
1 41187U 15081J   23263.88451070  .00001232  00000+0  31555-3 0  9994
2 41187  47.0041 221.5343 0003283 289.1214  70.9315 14.55900168414151
ORBCOMM FM117 [+]       
1 41188U 15081K   23263.91830765  .00001230  00000+0  31533-3 0  9995
2 41188  47.0002 220.3413 0003958 296.7428  63.3052 14.55887011414205
ORBCOMM FM116 [+]       
1 41189U 15081L   23263.56522277  .00001266  00000+0  32337-3 0  9995
2 41189  47.0028 311.8128 0001867 346.0913  13.9920 14.55895976412963
